[{"OBJECT_NAME":"STARLINK-1597","OBJECT_ID":"2020-057AB","EPOCH":"2026-03-10T00:00:02.999808","MEAN_MOTION":15.56277129,"ECCENTRICITY":0.0007232,"INCLINATION":53.0492,"RA_OF_ASC_NODE":295.3481,"ARG_OF_PERICENTER":151.3253,"MEAN_ANOMALY":20.2244,"EPHEMERIS_TYPE":0,"CLASSIFICATION_TYPE":"U","NORAD_CAT_ID":46142,"ELEMENT_SET_NO":999,"REV_AT_EPOCH":592,"BSTAR":0.0020720238,"MEAN_MOTION_DOT":0.00150729,"MEAN_MOTION_DDOT":0},{"OBJECT_NAME":"JILIN-1 GAOFEN 03D09","OBJECT_ID":"2022-098B","EPOCH":"2026-03-09T22:57:40.546656","MEAN_MOTION":15.55250114,"ECCENTRICITY":0.00025765,"INCLINATION":97.5458,"RA_OF_ASC_NODE":192.2234,"ARG_OF_PERICENTER":20.0829,"MEAN_ANOMALY":340.0526,"EPHEMERIS_TYPE":0,"CLASSIFICATION_TYPE":"U","NORAD_CAT_ID":53445,"ELEMENT_SET_NO":999,"REV_AT_EPOCH":19915,"BSTAR":0.00083701558,"MEAN_MOTION_DOT":0.00056849,"MEAN_MOTION_DDOT":0}]
